{
"type": "FeatureCollection",
"name": "route_GALLE-ROAD-01",
"crs": { "type": "name", "properties": { "name": "urn:ogc:def:crs:OGC:1.3:CRS84" } },
"features": [
{ "type": "Feature", "properties": { "routeNo": "GALLE-ROAD-01", "name": "Colombo Fort -> Galle (Galle Road)", "buffer_m": 100.0 }, "geometry": { "type": "LineString", "coordinates": [ [ 79.8428, 6.9344 ], [ 79.844, 6.9271 ], [ 79.8498, 6.9115 ], [ 79.8535, 6.8965 ], [ 79.86, 6.873 ], [ 79.87, 6.84 ], [ 79.878, 6.82 ], [ 79.885, 6.8 ], [ 79.892, 6.76 ], [ 79.9, 6.71 ], [ 79.9706, 6.6351 ], [ 79.96, 6.58 ], [ 80.0, 6.43 ], [ 80.03, 6.3 ], [ 80.1, 6.12 ], [ 80.221, 6.0535 ] ] } }
]
}
